[{"OBJECT_NAME":"STARLINK-35898","OBJECT_ID":"2025-280F","EPOCH":"2026-03-09T21:57:09.540000","MEAN_MOTION":14.98331395,"ECCENTRICITY":0.00023614,"INCLINATION":70.0019,"RA_OF_ASC_NODE":333.7246,"ARG_OF_PERICENTER":270.0315,"MEAN_ANOMALY":90.0573,"EPHEMERIS_TYPE":0,"CLASSIFICATION_TYPE":"U","NORAD_CAT_ID":66826,"ELEMENT_SET_NO":999,"REV_AT_EPOCH":1611,"BSTAR":0.00051675737,"MEAN_MOTION_DOT":6.078e-5,"MEAN_MOTION_DDOT":0},{"OBJECT_NAME":"CZ-2D R\/B","OBJECT_ID":"2022-115B","EPOCH":"2026-03-09T18:12:21.553056","MEAN_MOTION":14.71713685,"ECCENTRICITY":0.01166618,"INCLINATION":98.4206,"RA_OF_ASC_NODE":141.0162,"ARG_OF_PERICENTER":26.5061,"MEAN_ANOMALY":334.2047,"EPHEMERIS_TYPE":0,"CLASSIFICATION_TYPE":"U","NORAD_CAT_ID":53878,"ELEMENT_SET_NO":999,"REV_AT_EPOCH":18593,"BSTAR":0.0001506272,"MEAN_MOTION_DOT":9.83e-6,"MEAN_MOTION_DDOT":0}]
